[{"OBJECT_NAME":"STARLINK-30598","OBJECT_ID":"2023-160E","EPOCH":"2026-03-09T02:01:36.543936","MEAN_MOTION":15.27576958,"ECCENTRICITY":4.243e-5,"INCLINATION":42.999,"RA_OF_ASC_NODE":81.2724,"ARG_OF_PERICENTER":309.5491,"MEAN_ANOMALY":50.5323,"EPHEMERIS_TYPE":0,"CLASSIFICATION_TYPE":"U","NORAD_CAT_ID":58079,"ELEMENT_SET_NO":999,"REV_AT_EPOCH":13285,"BSTAR":1.0999071e-5,"MEAN_MOTION_DOT":4.1e-7,"MEAN_MOTION_DDOT":0},{"OBJECT_NAME":"OBJECT V","OBJECT_ID":"2025-155V","EPOCH":"2026-03-09T20:35:20.067360","MEAN_MOTION":15.27583301,"ECCENTRICITY":0.00080353,"INCLINATION":97.4485,"RA_OF_ASC_NODE":37.249,"ARG_OF_PERICENTER":152.8264,"MEAN_ANOMALY":207.3397,"EPHEMERIS_TYPE":0,"CLASSIFICATION_TYPE":"U","NORAD_CAT_ID":64895,"ELEMENT_SET_NO":999,"REV_AT_EPOCH":6557,"BSTAR":0.00051002361,"MEAN_MOTION_DOT":0.00013705,"MEAN_MOTION_DDOT":0}]
